CCSDS_OMM_VERS = 2.0
CREATION_DATE  = 
ORIGINATOR     = 

OBJECT_NAME    = SL-14 R/B
OBJECT_ID      = 1986-046B
CENTER_NAME    = EARTH
REF_FRAME      = TEME
TIME_SYSTEM    = UTC
MEAN_ELEMENT_THEORY = SGP/SGP4

EPOCH          = 2026-03-03T13:02:20.675904
MEAN_MOTION    = 14.85583365
ECCENTRICITY   = .00216555
INCLINATION    = 82.4782
RA_OF_ASC_NODE = 85.9912
ARG_OF_PERICENTER = 246.8752
MEAN_ANOMALY   = 113.0182

EPHEMERIS_TYPE = 0
CLASSIFICATION_TYPE = U
NORAD_CAT_ID   = 16792
ELEMENT_SET_NO = 999
REV_AT_EPOCH   = 12549
BSTAR          = .67752513E-4
MEAN_MOTION_DOT = .612E-5
MEAN_MOTION_DDOT = 0

CCSDS_OMM_VERS = 2.0
CREATION_DATE  = 
ORIGINATOR     = 

OBJECT_NAME    = SL-14 R/B
OBJECT_ID      = 1986-055B
CENTER_NAME    = EARTH
REF_FRAME      = TEME
TIME_SYSTEM    = UTC
MEAN_ELEMENT_THEORY = SGP/SGP4

EPOCH          = 2026-03-03T14:47:17.507904
MEAN_MOTION    = 14.85636215
ECCENTRICITY   = .00187121
INCLINATION    = 82.5212
RA_OF_ASC_NODE = 132.3825
ARG_OF_PERICENTER = 357.0770
MEAN_ANOMALY   = 116.2400

EPHEMERIS_TYPE = 0
CLASSIFICATION_TYPE = U
NORAD_CAT_ID   = 16882
ELEMENT_SET_NO = 999
REV_AT_EPOCH   = 11846
BSTAR          = .6764975E-4
MEAN_MOTION_DOT = .611E-5
MEAN_MOTION_DDOT = 0

CCSDS_OMM_VERS = 2.0
CREATION_DATE  = 
ORIGINATOR     = 

OBJECT_NAME    = AJISAI (EGS)
OBJECT_ID      = 1986-061A
CENTER_NAME    = EARTH
REF_FRAME      = TEME
TIME_SYSTEM    = UTC
MEAN_ELEMENT_THEORY = SGP/SGP4

EPOCH          = 2026-03-03T14:43:23.157408
MEAN_MOTION    = 12.44515523
ECCENTRICITY   = .00112506
INCLINATION    = 50.0080
RA_OF_ASC_NODE = 112.0328
ARG_OF_PERICENTER = 271.3884
MEAN_ANOMALY   = 163.7547

EPHEMERIS_TYPE = 0
CLASSIFICATION_TYPE = U
NORAD_CAT_ID   = 16908
ELEMENT_SET_NO = 999
REV_AT_EPOCH   = 46724
BSTAR          = .14804457E-3
MEAN_MOTION_DOT = -.76E-6
MEAN_MOTION_DDOT = 0

CCSDS_OMM_VERS = 2.0
CREATION_DATE  = 
ORIGINATOR     = 

OBJECT_NAME    = COSMOS 1812
OBJECT_ID      = 1987-003A
CENTER_NAME    = EARTH
REF_FRAME      = TEME
TIME_SYSTEM    = UTC
MEAN_ELEMENT_THEORY = SGP/SGP4

EPOCH          = 2026-03-03T14:49:59.253024
MEAN_MOTION    = 16.24359428
ECCENTRICITY   = .00078955
INCLINATION    = 82.4711
RA_OF_ASC_NODE = 202.5548
ARG_OF_PERICENTER = 287.2968
MEAN_ANOMALY   = 72.7458

EPHEMERIS_TYPE = 0
CLASSIFICATION_TYPE = U
NORAD_CAT_ID   = 17295
ELEMENT_SET_NO = 999
REV_AT_EPOCH   = 14350
BSTAR          = .77782222E-3
MEAN_MOTION_DOT = .207464E-1
MEAN_MOTION_DDOT = -.1218698E-5

CCSDS_OMM_VERS = 2.0
CREATION_DATE  = 
ORIGINATOR     = 

OBJECT_NAME    = SL-14 R/B
OBJECT_ID      = 1987-024B
CENTER_NAME    = EARTH
REF_FRAME      = TEME
TIME_SYSTEM    = UTC
MEAN_ELEMENT_THEORY = SGP/SGP4

EPOCH          = 2026-03-03T12:16:43.055616
MEAN_MOTION    = 14.86125276
ECCENTRICITY   = .00166864
INCLINATION    = 82.5253
RA_OF_ASC_NODE = 98.5720
ARG_OF_PERICENTER = 282.2797
MEAN_ANOMALY   = 77.6551

EPHEMERIS_TYPE = 0
CLASSIFICATION_TYPE = U
NORAD_CAT_ID   = 17567
ELEMENT_SET_NO = 999
REV_AT_EPOCH   = 8721
BSTAR          = .64631087E-4
MEAN_MOTION_DOT = .591E-5
MEAN_MOTION_DDOT = 0

CCSDS_OMM_VERS = 2.0
CREATION_DATE  = 
ORIGINATOR     = 

OBJECT_NAME    = COSMOS 1833
OBJECT_ID      = 1987-027A
CENTER_NAME    = EARTH
REF_FRAME      = TEME
TIME_SYSTEM    = UTC
MEAN_ELEMENT_THEORY = SGP/SGP4

EPOCH          = 2026-03-03T04:56:43.096704
MEAN_MOTION    = 14.13056167
ECCENTRICITY   = .00245583
INCLINATION    = 70.9233
RA_OF_ASC_NODE = 339.6445
ARG_OF_PERICENTER = 223.5148
MEAN_ANOMALY   = 136.4036

EPHEMERIS_TYPE = 0
CLASSIFICATION_TYPE = U
NORAD_CAT_ID   = 17589
ELEMENT_SET_NO = 999
REV_AT_EPOCH   = 940
BSTAR          = -.43122844E-4
MEAN_MOTION_DOT = -.129E-5
MEAN_MOTION_DDOT = 0

CCSDS_OMM_VERS = 2.0
CREATION_DATE  = 
ORIGINATOR     = 

OBJECT_NAME    = SL-16 R/B
OBJECT_ID      = 1987-027B
CENTER_NAME    = EARTH
REF_FRAME      = TEME
TIME_SYSTEM    = UTC
MEAN_ELEMENT_THEORY = SGP/SGP4

EPOCH          = 2026-03-03T14:55:42.398400
MEAN_MOTION    = 14.17166402
ECCENTRICITY   = .00037102
INCLINATION    = 71.0018
RA_OF_ASC_NODE = 289.2821
ARG_OF_PERICENTER = 155.6917
MEAN_ANOMALY   = 204.4383

EPHEMERIS_TYPE = 0
CLASSIFICATION_TYPE = U
NORAD_CAT_ID   = 17590
ELEMENT_SET_NO = 999
REV_AT_EPOCH   = 1448
BSTAR          = -.66689646E-4
MEAN_MOTION_DOT = -.182E-5
MEAN_MOTION_DDOT = 0

CCSDS_OMM_VERS = 2.0
CREATION_DATE  = 
ORIGINATOR     = 

OBJECT_NAME    = SL-14 R/B
OBJECT_ID      = 1987-038B
CENTER_NAME    = EARTH
REF_FRAME      = TEME
TIME_SYSTEM    = UTC
MEAN_ELEMENT_THEORY = SGP/SGP4

EPOCH          = 2026-03-03T15:18:54.739584
MEAN_MOTION    = 14.85363047
ECCENTRICITY   = .00191532
INCLINATION    = 82.5013
RA_OF_ASC_NODE = 302.5087
ARG_OF_PERICENTER = 180.1537
MEAN_ANOMALY   = 179.9677

EPHEMERIS_TYPE = 0
CLASSIFICATION_TYPE = U
NORAD_CAT_ID   = 17912
ELEMENT_SET_NO = 999
REV_AT_EPOCH   = 7833
BSTAR          = .62431055E-4
MEAN_MOTION_DOT = .563E-5
MEAN_MOTION_DDOT = 0

CCSDS_OMM_VERS = 2.0
CREATION_DATE  = 
ORIGINATOR     = 

OBJECT_NAME    = COSMOS 1844
OBJECT_ID      = 1987-041A
CENTER_NAME    = EARTH
REF_FRAME      = TEME
TIME_SYSTEM    = UTC
MEAN_ELEMENT_THEORY = SGP/SGP4

EPOCH          = 2026-03-03T09:20:56.091840
MEAN_MOTION    = 14.14553224
ECCENTRICITY   = .00296591
INCLINATION    = 70.8994
RA_OF_ASC_NODE = 47.4636
ARG_OF_PERICENTER = 27.3569
MEAN_ANOMALY   = 332.9107

EPHEMERIS_TYPE = 0
CLASSIFICATION_TYPE = U
NORAD_CAT_ID   = 17973
ELEMENT_SET_NO = 999
REV_AT_EPOCH   = 269
BSTAR          = -.10019688E-4
MEAN_MOTION_DOT = -.68E-6
MEAN_MOTION_DDOT = 0

CCSDS_OMM_VERS = 2.0
CREATION_DATE  = 
ORIGINATOR     = 

OBJECT_NAME    = SL-14 R/B
OBJECT_ID      = 1987-055B
CENTER_NAME    = EARTH
REF_FRAME      = TEME
TIME_SYSTEM    = UTC
MEAN_ELEMENT_THEORY = SGP/SGP4

EPOCH          = 2026-03-03T06:42:17.986176
MEAN_MOTION    = 14.85620176
ECCENTRICITY   = .0021671
INCLINATION    = 82.5029
RA_OF_ASC_NODE = 355.0710
ARG_OF_PERICENTER = 38.2733
MEAN_ANOMALY   = 322.0016

EPHEMERIS_TYPE = 0
CLASSIFICATION_TYPE = U
NORAD_CAT_ID   = 18153
ELEMENT_SET_NO = 999
REV_AT_EPOCH   = 6898
BSTAR          = .84957709E-4
MEAN_MOTION_DOT = .763E-5
MEAN_MOTION_DDOT = 0

CCSDS_OMM_VERS = 2.0
CREATION_DATE  = 
ORIGINATOR     = 

OBJECT_NAME    = COSMOS 1867
OBJECT_ID      = 1987-060A
CENTER_NAME    = EARTH
REF_FRAME      = TEME
TIME_SYSTEM    = UTC
MEAN_ELEMENT_THEORY = SGP/SGP4

EPOCH          = 2026-03-03T03:41:22.185600
MEAN_MOTION    = 14.31501790
ECCENTRICITY   = .00143877
INCLINATION    = 65.0120
RA_OF_ASC_NODE = 325.0088
ARG_OF_PERICENTER = 278.2415
MEAN_ANOMALY   = 81.7037

EPHEMERIS_TYPE = 0
CLASSIFICATION_TYPE = U
NORAD_CAT_ID   = 18187
ELEMENT_SET_NO = 999
REV_AT_EPOCH   = 1900
BSTAR          = .40139661E-4
MEAN_MOTION_DOT = .7E-7
MEAN_MOTION_DDOT = 0

CCSDS_OMM_VERS = 2.0
CREATION_DATE  = 
ORIGINATOR     = 

OBJECT_NAME    = SL-14 R/B
OBJECT_ID      = 1988-001B
CENTER_NAME    = EARTH
REF_FRAME      = TEME
TIME_SYSTEM    = UTC
MEAN_ELEMENT_THEORY = SGP/SGP4

EPOCH          = 2026-03-03T11:25:51.904416
MEAN_MOTION    = 14.85518630
ECCENTRICITY   = .00166049
INCLINATION    = 82.5142
RA_OF_ASC_NODE = 201.2028
ARG_OF_PERICENTER = 257.9558
MEAN_ANOMALY   = 101.9797

EPHEMERIS_TYPE = 0
CLASSIFICATION_TYPE = U
NORAD_CAT_ID   = 18749
ELEMENT_SET_NO = 999
REV_AT_EPOCH   = 4110
BSTAR          = .85252217E-4
MEAN_MOTION_DOT = .761E-5
MEAN_MOTION_DDOT = 0

