SL-14 R/B               
1 16792U 86046B   26062.54329486  .00000612  00000+0  67753-4 0  9996
2 16792  82.4782  85.9912 0021655 246.8752 113.0182 14.85583365125490
SL-14 R/B               
1 16882U 86055B   26062.61617486  .00000611  00000+0  67650-4 0  9999
2 16882  82.5212 132.3825 0018712 357.0770 116.2400 14.85636215118464
AJISAI (EGS)            
1 16908U 86061A   26062.61346247 -.00000076  00000+0  14804-3 0  9997
2 16908  50.0080 112.0328 0011250 271.3884 163.7547 12.44515523467246
COSMOS 1812             
1 17295U 87003A   26062.61804691  .02074640 -12187-5  77782-3 0  9995
2 17295  82.4711 202.5548 0007895 287.2968  72.7458 16.24359428143506
SL-14 R/B               
1 17567U 87024B   26062.51160944  .00000591  00000+0  64631-4 0  9991
2 17567  82.5253  98.5720 0016686 282.2797  77.6551 14.86125276 87219
COSMOS 1833             
1 17589U 87027A   26062.20605436 -.00000129  00000+0 -43123-4 0  9996
2 17589  70.9233 339.6445 0024558 223.5148 136.4036 14.13056167  9409
SL-16 R/B               
1 17590U 87027B   26062.62201850 -.00000182  00000+0 -66690-4 0  9999
2 17590  71.0018 289.2821 0003710 155.6917 204.4383 14.17166402 14481
SL-14 R/B               
1 17912U 87038B   26062.63813356  .00000563  00000+0  62431-4 0  9990
2 17912  82.5013 302.5087 0019153 180.1537 179.9677 14.85363047 78338
COSMOS 1844             
1 17973U 87041A   26062.38953810 -.00000068  00000+0 -10020-4 0  9992
2 17973  70.8994  47.4636 0029659  27.3569 332.9107 14.14553224  2692
SL-14 R/B               
1 18153U 87055B   26062.27937484  .00000763  00000+0  84958-4 0  9996
2 18153  82.5029 355.0710 0021671  38.2733 322.0016 14.85620176 68985
COSMOS 1867             
1 18187U 87060A   26062.15372900  .00000007  00000+0  40140-4 0  9998
2 18187  65.0120 325.0088 0014387 278.2415  81.7037 14.31501790 19006
SL-14 R/B               
1 18749U 88001B   26062.47629519  .00000761  00000+0  85252-4 0  9994
2 18749  82.5142 201.2028 0016604 257.9558 101.9797 14.85518630 41107
